CYGNUS NG-23            
1 65616U 25208A   25344.54178148  .00015517  00000+0  28443-3 0  9999
2 65616  51.6308 153.3620 0003360 230.7092 129.3599 15.49478601   221
DRAGONFLY               
1 65729U 98067XH  25344.44909778  .00217091  00000+0  16627-2 0  9998
2 65729  51.6250 147.4857 0006567 262.4747  97.5505 15.70885293 12802
1998-067XK              
1 65731U 98067XK  25344.49993669  .00124892  00000+0  12259-2 0  9991
2 65731  51.6281 148.5918 0005180 231.8122 128.2407 15.65134348 12799
RSP-03                  
1 65732U 98067XL  25344.50880676  .00159362  00000+0  13955-2 0  9991
2 65732  51.6265 147.8923 0005895 236.0858 123.9578 15.67837200 12819
GHS-01                  
1 65733U 98067XM  25343.76966236  .00225395  00000+0  15642-2 0  9991
2 65733  51.6282 150.4557 0006937 260.0742  99.9474 15.73188946 12718
YOTSUBA-KULOVER         
1 65941U 98067XN  25344.46947998  .00090413  00000+0  11321-2 0  9995
2 65941  51.6286 151.3857 0001550 232.2961 127.7891 15.59021065  9504
BOTAN                   
1 65942U 98067XP  25344.47987733  .00137252  00000+0  15088-2 0  9995
2 65942  51.6281 150.7055 0003382 220.3642 139.7102 15.62212709  9512
E-KAGAKU-1              
1 65943U 98067XQ  25344.27717868  .00100705  00000+0  12589-2 0  9990
2 65943  51.6298 152.3458 0005250 191.2269 168.8608 15.59004320  9476
HRC MONOBLOCK CAMERA    
1 66052U 98067XR  25344.07885491  .00046287  00000+0  70943-3 0  9991
2 66052  51.6294 154.7721 0003676 173.0963 187.0078 15.53848796  8427
HTV-X1                  
1 66174U 25241A   25344.54178148  .00015517  00000+0  28443-3 0  9996
2 66174  51.6308 153.3620 0003360 230.7092 129.3599 15.49478601   513
SZ-21 MODULE            
1 66515U 25246C   25344.49376162  .00035412  00000+0  39111-3 0  9990
2 66515  41.4772  29.7454 0006278 248.1298 111.8874 15.62311534  4092
SHENZHOU-22             
1 66645U 25272A   25344.60082613  .00034963  00000+0  43761-3 0  9997
2 66645  41.4683  29.6917 0008768  13.0632 347.0432 15.59037498263570
